Satellite: RS-30
Catalog number: 32953
Epoch time:      12061.27462518
Element set:     568
Inclination:      082.5071 deg
RA of node:       002.2400 deg
Eccentricity:    0.0018169
Arg of perigee:   180.0752 deg
Mean anomaly:     180.0330 deg
Mean motion:   12.43021231 rev/day
Decay rate:        1.0e-07 rev/day^2
Epoch rev:           17115
Checksum:              229

Satellite: TACSAT-3
Catalog number: 35001
Epoch time:      12060.96391961
Element set:    0888
Inclination:      040.4484 deg
RA of node:       024.6620 deg
Eccentricity:    0.0009162
Arg of perigee:   219.7324 deg
Mean anomaly:     140.2889 deg
Mean motion:   15.76685328 rev/day
Decay rate:    1.28461e-03 rev/day^2
Epoch rev:           15731
Checksum:              308

Satellite: PHARMSAT
Catalog number: 35002
Epoch time:      12060.29661920
Element set:    0815
Inclination:      040.4665 deg
RA of node:       034.4043 deg
Eccentricity:    0.0005388
Arg of perigee:   340.6133 deg
Mean anomaly:     019.4477 deg
Mean motion:   15.66302815 rev/day
Decay rate:     5.1521e-04 rev/day^2
Epoch rev:           15715
Checksum:              264

Satellite: METEOR-M
Catalog number: 35865
Epoch time:      12060.91989556
Element set:    0190
Inclination:      098.6692 deg
RA of node:       117.2075 deg
Eccentricity:    0.0002910
Arg of perigee:   022.3588 deg
Mean anomaly:     337.7716 deg
Mean motion:   14.21856202 rev/day
Decay rate:       -2.5e-07 rev/day^2
Epoch rev:           12721
Checksum:              298

Satellite: RS-38
Catalog number: 35869
Epoch time:      12061.37881515
Element set:     199
Inclination:      098.6661 deg
RA of node:       117.6711 deg
Eccentricity:    0.0004894
Arg of perigee:   014.5570 deg
Mean anomaly:     345.5749 deg
Mean motion:   14.22056240 rev/day
Decay rate:        2.1e-07 rev/day^2
Epoch rev:           12729
Checksum:              314

Satellite: JUGNU
Catalog number: 37839
Epoch time:      12058.86066747
Element set:    0098
Inclination:      019.9636 deg
RA of node:       306.6131 deg
Eccentricity:    0.0019653
Arg of perigee:   088.0494 deg
Mean anomaly:     272.2161 deg
Mean motion:   14.12028722 rev/day
Decay rate:       6.19e-06 rev/day^2
Epoch rev:           01963
Checksum:              312

Satellite: SRMSAT
Catalog number: 37841
Epoch time:      12060.03897193
Element set:    0099
Inclination:      019.9756 deg
RA of node:       302.1964 deg
Eccentricity:    0.0011552
Arg of perigee:   073.3143 deg
Mean anomaly:     286.8600 deg
Mean motion:   14.10117785 rev/day
Decay rate:       2.64e-06 rev/day^2
Epoch rev:           01977
Checksum:              297

Satellite: RAX-2
Catalog number: 37853
Epoch time:      12060.98411438
Element set:    0115
Inclination:      101.7140 deg
RA of node:       051.9824 deg
Eccentricity:    0.0250769
Arg of perigee:   299.1428 deg
Mean anomaly:     058.4883 deg
Mean motion:   14.79011983 rev/day
Decay rate:      5.506e-05 rev/day^2
Epoch rev:           01840
Checksum:              306

Satellite: AUBIESAT
Catalog number: 37854
Epoch time:      12060.89654672
Element set:    0117
Inclination:      101.7173 deg
RA of node:       051.9680 deg
Eccentricity:    0.0251218
Arg of perigee:   298.8110 deg
Mean anomaly:     058.8083 deg
Mean motion:   14.79329377 rev/day
Decay rate:      6.067e-05 rev/day^2
Epoch rev:           01837
Checksum:              319

Satellite: HRBE
Catalog number: 37855
Epoch time:      12060.96887760
Element set:    0122
Inclination:      101.7198 deg
RA of node:       052.0630 deg
Eccentricity:    0.0251726
Arg of perigee:   298.7699 deg
Mean anomaly:     058.8444 deg
Mean motion:   14.79226339 rev/day
Decay rate:      5.683e-05 rev/day^2
Epoch rev:           01838
Checksum:              338

