RS-30
1 32953U 08025A   12061.27462518  .00000010  00000-0  00000 0 0  5684
2 32953 082.5071 002.2400 0018169 180.0752 180.0330 12.43021231171152
TACSAT-3
1 35001U 09028A   12060.96391961  .00128461  00000-0  76465-3 0 08881
2 35001 040.4484 024.6620 0009162 219.7324 140.2889 15.76685328157311
PHARMSAT
1 35002U 09028B   12060.29661920  .00051521  00000-0  48269-3 0 08156
2 35002 040.4665 034.4043 0005388 340.6133 019.4477 15.66302815157157
METEOR-M
1 35865U 09049A   12060.91989556 -.00000025  00000-0  85976-5 0 01901
2 35865 098.6692 117.2075 0002910 022.3588 337.7716 14.21856202127210
RS-38
1 35869U 09049E   12061.37881515  .00000021  00000-0  29239-4 0  1995
2 35869 098.6661 117.6711 0004894 014.5570 345.5749 14.22056240127294
JUGNU
1 37839U 11058B   12058.86066747  .00000619  00000-0  19019-3 0 00984
2 37839 019.9636 306.6131 0019653 088.0494 272.2161 14.12028722019632
SRMSAT
1 37841U 11058D   12060.03897193  .00000264  00000-0  00000-0 0 00990
2 37841 019.9756 302.1964 0011552 073.3143 286.8600 14.10117785019771
RAX-2
1 37853U 11061D   12060.98411438  .00005506  00000-0  44681-3 0 01154
2 37853 101.7140 051.9824 0250769 299.1428 058.4883 14.79011983018407
AUBIESAT
1 37854U 11061E   12060.89654672  .00006067  00000-0  48569-3 0 01178
2 37854 101.7173 051.9680 0251218 298.8110 058.8083 14.79329377018379
HRBE
1 37855U 11061F   12060.96887760  .00005683  00000-0  45603-3 0 01228
2 37855 101.7198 052.0630 0251726 298.7699 058.8444 14.79226339018385
